[{"OBJECT_NAME":"STARLINK-3056","OBJECT_ID":"2021-082AF","EPOCH":"2026-03-09T21:20:27.846816","MEAN_MOTION":14.98317734,"ECCENTRICITY":0.00029466,"INCLINATION":69.998,"RA_OF_ASC_NODE":293.9534,"ARG_OF_PERICENTER":270.2418,"MEAN_ANOMALY":89.8404,"EPHEMERIS_TYPE":0,"CLASSIFICATION_TYPE":"U","NORAD_CAT_ID":49159,"ELEMENT_SET_NO":999,"REV_AT_EPOCH":24710,"BSTAR":9.1259836e-5,"MEAN_MOTION_DOT":9.96e-6,"MEAN_MOTION_DDOT":0},{"OBJECT_NAME":"CZ-2D DEB","OBJECT_ID":"2017-060B","EPOCH":"2026-03-09T14:15:36.855648","MEAN_MOTION":14.99543568,"ECCENTRICITY":0.002893,"INCLINATION":97.5408,"RA_OF_ASC_NODE":90.0945,"ARG_OF_PERICENTER":284.1616,"MEAN_ANOMALY":75.6394,"EPHEMERIS_TYPE":0,"CLASSIFICATION_TYPE":"U","NORAD_CAT_ID":44609,"ELEMENT_SET_NO":999,"REV_AT_EPOCH":45025,"BSTAR":0.00057261,"MEAN_MOTION_DOT":7.042e-5,"MEAN_MOTION_DDOT":0}]
